[{"Zip":"Abington","Name":"Abington","Value":81500},
{"Zip":"Acton","Name":"Acton","Value":120865},
{"Zip":"Acushnet","Name":"Acushnet","Value":69570},
{"Zip":"Adams","Name":"Adams","Value":41807},
{"Zip":"Agawam","Name":"Agawam","Value":63561},
{"Zip":"Alford","Name":"Alford","Value":91250},
{"Zip":"Amesbury","Name":"Amesbury","Value":76463},
{"Zip":"Amherst","Name":"Amherst","Value":52537},
{"Zip":"Andover","Name":"Andover","Value":125321},
{"Zip":"Aquinnah","Name":"Aquinnah","Value":65833},
{"Zip":"Arlington","Name":"Arlington","Value":92338},
{"Zip":"Ashburnham","Name":"Ashburnham","Value":85662},
{"Zip":"Ashby","Name":"Ashby","Value":83917},
{"Zip":"Ashfield","Name":"Ashfield","Value":71364},
{"Zip":"Ashland","Name":"Ashland","Value":102721},
{"Zip":"Athol","Name":"Athol","Value":47122},
{"Zip":"Attleboro","Name":"Attleboro","Value":65141},
{"Zip":"Auburn","Name":"Auburn","Value":72695},
{"Zip":"Avon","Name":"Avon","Value":78750},
{"Zip":"Ayer","Name":"Ayer","Value":67110},
{"Zip":"Barnstable","Name":"Barnstable","Value":58933},
{"Zip":"Barre","Name":"Barre","Value":66250},
{"Zip":"Becket","Name":"Becket","Value":64152},
{"Zip":"Bedford","Name":"Bedford","Value":114676},
{"Zip":"Belchertown","Name":"Belchertown","Value":74221},
{"Zip":"Bellingham","Name":"Bellingham","Value":87417},
{"Zip":"Belmont","Name":"Belmont","Value":105859},
{"Zip":"Berkley","Name":"Berkley","Value":84423},
{"Zip":"Berlin","Name":"Berlin","Value":88681},
{"Zip":"Bernardston","Name":"Bernardston","Value":59167},
{"Zip":"Beverly","Name":"Beverly","Value":73980},
{"Zip":"Billerica","Name":"Billerica","Value":93761},
{"Zip":"Blackstone","Name":"Blackstone","Value":72699},
{"Zip":"Blandford","Name":"Blandford","Value":72361},
{"Zip":"Bolton","Name":"Bolton","Value":144461},
{"Zip":"Boston","Name":"Boston","Value":54485},
{"Zip":"Bourne","Name":"Bourne","Value":63664},
{"Zip":"Boxborough","Name":"Boxborough","Value":103996},
{"Zip":"Boxford","Name":"Boxford","Value":127813},
{"Zip":"Boylston","Name":"Boylston","Value":102422},
{"Zip":"Braintree","Name":"Braintree","Value":87500},
{"Zip":"Brewster","Name":"Brewster","Value":66306},
{"Zip":"Bridgewater","Name":"Bridgewater","Value":88481},
{"Zip":"Brimfield","Name":"Brimfield","Value":82365},
{"Zip":"Brockton","Name":"Brockton","Value":48569},
{"Zip":"Brookfield","Name":"Brookfield","Value":63889},
{"Zip":"Brookline","Name":"Brookline","Value":93640},
{"Zip":"Buckland","Name":"Buckland","Value":52356},
{"Zip":"Burlington","Name":"Burlington","Value":95465},
{"Zip":"Cambridge","Name":"Cambridge","Value":75909},
{"Zip":"Canton","Name":"Canton","Value":90878},
{"Zip":"Carlisle","Name":"Carlisle","Value":157500},
{"Zip":"Carver","Name":"Carver","Value":72804},
{"Zip":"Charlemont","Name":"Charlemont","Value":49000},
{"Zip":"Charlton","Name":"Charlton","Value":91287},
{"Zip":"Chatham","Name":"Chatham","Value":63299},
{"Zip":"Chelmsford","Name":"Chelmsford","Value":93643},
{"Zip":"Chelsea","Name":"Chelsea","Value":48725},
{"Zip":"Cheshire","Name":"Cheshire","Value":54741},
{"Zip":"Chester","Name":"Chester","Value":65648},
{"Zip":"Chesterfield","Name":"Chesterfield","Value":63594},
{"Zip":"Chicopee","Name":"Chicopee","Value":47276},
{"Zip":"Chilmark","Name":"Chilmark","Value":67813},
{"Zip":"Clarksburg","Name":"Clarksburg","Value":57375},
{"Zip":"Clinton","Name":"Clinton","Value":64867},
{"Zip":"Cohasset","Name":"Cohasset","Value":117679},
{"Zip":"Colrain","Name":"Colrain","Value":46452},
{"Zip":"Concord","Name":"Concord","Value":132385},
{"Zip":"Conway","Name":"Conway","Value":79286},
{"Zip":"Cummington","Name":"Cummington","Value":50521},
{"Zip":"Dalton","Name":"Dalton","Value":47500},
{"Zip":"Danvers","Name":"Danvers","Value":77404},
{"Zip":"Dartmouth","Name":"Dartmouth","Value":68684},
{"Zip":"Dedham","Name":"Dedham","Value":85558},
{"Zip":"Deerfield","Name":"Deerfield","Value":75307},
{"Zip":"Dennis","Name":"Dennis","Value":50860},
{"Zip":"Dighton","Name":"Dighton","Value":85326},
{"Zip":"Douglas","Name":"Douglas","Value":84616},
{"Zip":"Dover","Name":"Dover","Value":176250},
{"Zip":"Dracut","Name":"Dracut","Value":76786},
{"Zip":"Dudley","Name":"Dudley","Value":68053},
{"Zip":"Dunstable","Name":"Dunstable","Value":116125},
{"Zip":"Duxbury","Name":"Duxbury","Value":120253},
{"Zip":"EastBridgewater","Name":"East Bridgewater","Value":88534},
{"Zip":"EastBrookfield","Name":"East Brookfield","Value":71020},
{"Zip":"EastLongmeadow","Name":"East Longmeadow","Value":84173},
{"Zip":"Eastham","Name":"Eastham","Value":62452},
{"Zip":"Easthampton","Name":"Easthampton","Value":56927},
{"Zip":"Easton","Name":"Easton","Value":95372},
{"Zip":"Edgartown","Name":"Edgartown","Value":56911},
{"Zip":"Egremont","Name":"Egremont","Value":54556},
{"Zip":"Erving","Name":"Erving","Value":61083},
{"Zip":"Essex","Name":"Essex","Value":89185},
{"Zip":"Everett","Name":"Everett","Value":51056},
{"Zip":"Fairhaven","Name":"Fairhaven","Value":60445},
{"Zip":"FallRiver","Name":"Fall River","Value":33763},
{"Zip":"Falmouth","Name":"Falmouth","Value":64070},
{"Zip":"Fitchburg","Name":"Fitchburg","Value":46628},
{"Zip":"Florida","Name":"Florida","Value":52313},
{"Zip":"Foxborough","Name":"Foxborough","Value":94538},
{"Zip":"Framingham","Name":"Framingham","Value":68881},
{"Zip":"Franklin","Name":"Franklin","Value":101980},
{"Zip":"Freetown","Name":"Freetown","Value":87830},
{"Zip":"Gardner","Name":"Gardner","Value":46589},
{"Zip":"Georgetown","Name":"Georgetown","Value":106898},
{"Zip":"Gill","Name":"Gill","Value":75776},
{"Zip":"Gloucester","Name":"Gloucester","Value":60229},
{"Zip":"Goshen","Name":"Goshen","Value":69219},
{"Zip":"Gosnold","Name":"Gosnold","Value":31406},
{"Zip":"Grafton","Name":"Grafton","Value":81250},
{"Zip":"Granby","Name":"Granby","Value":78261},
{"Zip":"Granville","Name":"Granville","Value":75208},
{"Zip":"GreatBarrington","Name":"Great Barrington","Value":52026},
{"Zip":"Greenfield","Name":"Greenfield","Value":48493},
{"Zip":"Groton","Name":"Groton","Value":116686},
{"Zip":"Groveland","Name":"Groveland","Value":92898},
{"Zip":"Hadley","Name":"Hadley","Value":74737},
{"Zip":"Halifax","Name":"Halifax","Value":69917},
{"Zip":"Hamilton","Name":"Hamilton","Value":108558},
{"Zip":"Hampden","Name":"Hampden","Value":78722},
{"Zip":"Hancock","Name":"Hancock","Value":80395},
{"Zip":"Hanover","Name":"Hanover","Value":98750},
{"Zip":"Hanson","Name":"Hanson","Value":93771},
{"Zip":"Hardwick","Name":"Hardwick","Value":59148},
{"Zip":"Harvard","Name":"Harvard","Value":131563},
{"Zip":"Harwich","Name":"Harwich","Value":67332},
{"Zip":"Hatfield","Name":"Hatfield","Value":60033},
{"Zip":"Haverhill","Name":"Haverhill","Value":61208},
{"Zip":"Hawley","Name":"Hawley","Value":68000},
{"Zip":"Heath","Name":"Heath","Value":56458},
{"Zip":"Hingham","Name":"Hingham","Value":103350},
{"Zip":"Hinsdale","Name":"Hinsdale","Value":63953},
{"Zip":"Holbrook","Name":"Holbrook","Value":63297},
{"Zip":"Holden","Name":"Holden","Value":97972},
{"Zip":"Holland","Name":"Holland","Value":64868},
{"Zip":"Holliston","Name":"Holliston","Value":108350},
{"Zip":"Holyoke","Name":"Holyoke","Value":35550},
{"Zip":"Hopedale","Name":"Hopedale","Value":99886},
{"Zip":"Hopkinton","Name":"Hopkinton","Value":128267},
{"Zip":"Hubbardston","Name":"Hubbardston","Value":83438},
{"Zip":"Hudson","Name":"Hudson","Value":74082},
{"Zip":"Hull","Name":"Hull","Value":77440},
{"Zip":"Huntington","Name":"Huntington","Value":52275},
{"Zip":"Ipswich","Name":"Ipswich","Value":77901},
{"Zip":"Kingston","Name":"Kingston","Value":86339},
{"Zip":"Lakeville","Name":"Lakeville","Value":82418},
{"Zip":"Lancaster","Name":"Lancaster","Value":81833},
{"Zip":"Lanesborough","Name":"Lanesborough","Value":72708},
{"Zip":"Lawrence","Name":"Lawrence","Value":34496},
{"Zip":"Lee","Name":"Lee","Value":59019},
{"Zip":"Leicester","Name":"Leicester","Value":68790},
{"Zip":"Lenox","Name":"Lenox","Value":51201},
{"Zip":"Leominster","Name":"Leominster","Value":59263},
{"Zip":"Leverett","Name":"Leverett","Value":78125},
{"Zip":"Lexington","Name":"Lexington","Value":137456},
{"Zip":"Leyden","Name":"Leyden","Value":74375},
{"Zip":"Lincoln","Name":"Lincoln","Value":127763},
{"Zip":"Littleton","Name":"Littleton","Value":111652},
{"Zip":"Longmeadow","Name":"Longmeadow","Value":108835},
{"Zip":"Lowell","Name":"Lowell","Value":49164},
{"Zip":"Ludlow","Name":"Ludlow","Value":61410},
{"Zip":"Lunenburg","Name":"Lunenburg","Value":71055},
{"Zip":"Lynn","Name":"Lynn","Value":47195},
{"Zip":"Lynnfield","Name":"Lynnfield","Value":114816},
{"Zip":"Malden","Name":"Malden","Value":55523},
{"Zip":"Manchester","Name":"Manchester","Value":89313},
{"Zip":"Mansfield","Name":"Mansfield","Value":93082},
{"Zip":"Marblehead","Name":"Marblehead","Value":100709},
{"Zip":"Marion","Name":"Marion","Value":76607},
{"Zip":"Marlborough","Name":"Marlborough","Value":71424},
{"Zip":"Marshfield","Name":"Marshfield","Value":89702},
{"Zip":"Mashpee","Name":"Mashpee","Value":65768},
{"Zip":"Mattapoisett","Name":"Mattapoisett","Value":78216},
{"Zip":"Maynard","Name":"Maynard","Value":79252},
{"Zip":"Medfield","Name":"Medfield","Value":143641},
{"Zip":"Medford","Name":"Medford","Value":77868},
{"Zip":"Medway","Name":"Medway","Value":109841},
{"Zip":"Melrose","Name":"Melrose","Value":86409},
{"Zip":"Mendon","Name":"Mendon","Value":112104},
{"Zip":"Merrimac","Name":"Merrimac","Value":80508},
{"Zip":"Methuen","Name":"Methuen","Value":68587},
{"Zip":"Middleborough","Name":"Middleborough","Value":75727},
{"Zip":"Middlefield","Name":"Middlefield","Value":78214},
{"Zip":"Middleton","Name":"Middleton","Value":105646},
{"Zip":"Milford","Name":"Milford","Value":68007},
{"Zip":"Millbury","Name":"Millbury","Value":71676},
{"Zip":"Millis","Name":"Millis","Value":96773},
{"Zip":"Millville","Name":"Millville","Value":88281},
{"Zip":"Milton","Name":"Milton","Value":113087},
{"Zip":"Monroe","Name":"Monroe","Value":32083},
{"Zip":"Monson","Name":"Monson","Value":66389},
{"Zip":"Montague","Name":"Montague","Value":47236},
{"Zip":"Monterey","Name":"Monterey","Value":48750},
{"Zip":"Montgomery","Name":"Montgomery","Value":78333},
{"Zip":"MountWashington","Name":"Mount Washington","Value":65417},
{"Zip":"Nahant","Name":"Nahant","Value":65083},
{"Zip":"Nantucket","Name":"Nantucket","Value":86529},
{"Zip":"Natick","Name":"Natick","Value":98902},
{"Zip":"Needham","Name":"Needham","Value":129154},
{"Zip":"NewAshford","Name":"New Ashford","Value":73750},
{"Zip":"NewBedford","Name":"New Bedford","Value":36813},
{"Zip":"NewBraintree","Name":"New Braintree","Value":81136},
{"Zip":"NewMarlborough","Name":"New Marlborough","Value":64559},
{"Zip":"NewSalem","Name":"New Salem","Value":78667},
{"Zip":"Newbury","Name":"Newbury","Value":95827},
{"Zip":"Newburyport","Name":"Newburyport","Value":83149},
{"Zip":"Newton","Name":"Newton","Value":118639},
{"Zip":"Norfolk","Name":"Norfolk","Value":143682},
{"Zip":"NorthAdams","Name":"North Adams","Value":37654},
{"Zip":"NorthAndover","Name":"North Andover","Value":100544},
{"Zip":"NorthAttleborough","Name":"North Attleborough","Value":81847},
{"Zip":"NorthBrookfield","Name":"North Brookfield","Value":58438},
{"Zip":"NorthReading","Name":"North Reading","Value":112419},
{"Zip":"Northampton","Name":"Northampton","Value":58179},
{"Zip":"Northborough","Name":"Northborough","Value":107111},
{"Zip":"Northbridge","Name":"Northbridge","Value":70399},
{"Zip":"Northfield","Name":"Northfield","Value":60721},
{"Zip":"Norton","Name":"Norton","Value":80806},
{"Zip":"Norwell","Name":"Norwell","Value":110671},
{"Zip":"Norwood","Name":"Norwood","Value":79963},
{"Zip":"OakBluffs","Name":"Oak Bluffs","Value":80225},
{"Zip":"Oakham","Name":"Oakham","Value":80577},
{"Zip":"Orange","Name":"Orange","Value":41473},
{"Zip":"Orleans","Name":"Orleans","Value":58235},
{"Zip":"Otis","Name":"Otis","Value":55833},
{"Zip":"Oxford","Name":"Oxford","Value":70016},
{"Zip":"Palmer","Name":"Palmer","Value":51846},
{"Zip":"Paxton","Name":"Paxton","Value":99375},
{"Zip":"Peabody","Name":"Peabody","Value":62234},
{"Zip":"Pelham","Name":"Pelham","Value":88462},
{"Zip":"Pembroke","Name":"Pembroke","Value":89954},
{"Zip":"Pepperell","Name":"Pepperell","Value":77767},
{"Zip":"Peru","Name":"Peru","Value":68971},
{"Zip":"Petersham","Name":"Petersham","Value":65625},
{"Zip":"Phillipston","Name":"Phillipston","Value":78490},
{"Zip":"Pittsfield","Name":"Pittsfield","Value":43489},
{"Zip":"Plainfield","Name":"Plainfield","Value":57188},
{"Zip":"Plainville","Name":"Plainville","Value":78516},
{"Zip":"Plymouth","Name":"Plymouth","Value":76925},
{"Zip":"Plympton","Name":"Plympton","Value":94505},
{"Zip":"Princeton","Name":"Princeton","Value":114688},
{"Zip":"Provincetown","Name":"Provincetown","Value":41250},
{"Zip":"Quincy","Name":"Quincy","Value":62710},
{"Zip":"Randolph","Name":"Randolph","Value":63259},
{"Zip":"Raynham","Name":"Raynham","Value":80056},
{"Zip":"Reading","Name":"Reading","Value":103913},
{"Zip":"Rehoboth","Name":"Rehoboth","Value":85691},
{"Zip":"Revere","Name":"Revere","Value":50900},
{"Zip":"Richmond","Name":"Richmond","Value":77396},
{"Zip":"Rochester","Name":"Rochester","Value":94688},
{"Zip":"Rockland","Name":"Rockland","Value":66860},
{"Zip":"Rockport","Name":"Rockport","Value":70288},
{"Zip":"Rowe","Name":"Rowe","Value":54375},
{"Zip":"Rowley","Name":"Rowley","Value":85994},
{"Zip":"Royalston","Name":"Royalston","Value":60568},
{"Zip":"Russell","Name":"Russell","Value":68750},
{"Zip":"Rutland","Name":"Rutland","Value":91033},
{"Zip":"Salem","Name":"Salem","Value":59044},
{"Zip":"Salisbury","Name":"Salisbury","Value":75995},
{"Zip":"Sandisfield","Name":"Sandisfield","Value":56250},
{"Zip":"Sandwich","Name":"Sandwich","Value":84167},
{"Zip":"Saugus","Name":"Saugus","Value":76141},
{"Zip":"Savoy","Name":"Savoy","Value":57222},
{"Zip":"Scituate","Name":"Scituate","Value":102577},
{"Zip":"Seekonk","Name":"Seekonk","Value":74242},
{"Zip":"Sharon","Name":"Sharon","Value":127413},
{"Zip":"Sheffield","Name":"Sheffield","Value":50530},
{"Zip":"Shelburne","Name":"Shelburne","Value":54167},
{"Zip":"Sherborn","Name":"Sherborn","Value":155564},
{"Zip":"Shirley","Name":"Shirley","Value":66453},
{"Zip":"Shrewsbury","Name":"Shrewsbury","Value":97365},
{"Zip":"Shutesbury","Name":"Shutesbury","Value":73173},
{"Zip":"Somerset","Name":"Somerset","Value":72558},
{"Zip":"Somerville","Name":"Somerville","Value":66866},
{"Zip":"SouthHadley","Name":"South Hadley","Value":62803},
{"Zip":"Southampton","Name":"Southampton","Value":68693},
{"Zip":"Southborough","Name":"Southborough","Value":149375},
{"Zip":"Southbridge","Name":"Southbridge","Value":42376},
{"Zip":"Southwick","Name":"Southwick","Value":81967},
{"Zip":"Spencer","Name":"Spencer","Value":60943},
{"Zip":"Springfield","Name":"Springfield","Value":34731},
{"Zip":"Sterling","Name":"Sterling","Value":90455},
{"Zip":"Stockbridge","Name":"Stockbridge","Value":57981},
{"Zip":"Stoneham","Name":"Stoneham","Value":76218},
{"Zip":"Stoughton","Name":"Stoughton","Value":74688},
{"Zip":"Stow","Name":"Stow","Value":131500},
{"Zip":"Sturbridge","Name":"Sturbridge","Value":79711},
{"Zip":"Sudbury","Name":"Sudbury","Value":169505},
{"Zip":"Sunderland","Name":"Sunderland","Value":50417},
{"Zip":"Sutton","Name":"Sutton","Value":111804},
{"Zip":"Swampscott","Name":"Swampscott","Value":96494},
{"Zip":"Swansea","Name":"Swansea","Value":77345},
{"Zip":"Taunton","Name":"Taunton","Value":52225},
{"Zip":"Templeton","Name":"Templeton","Value":68929},
{"Zip":"Tewksbury","Name":"Tewksbury","Value":87496},
{"Zip":"Tisbury","Name":"Tisbury","Value":42727},
{"Zip":"Tolland","Name":"Tolland","Value":85750},
{"Zip":"Topsfield","Name":"Topsfield","Value":121157},
{"Zip":"Townsend","Name":"Townsend","Value":82674},
{"Zip":"Truro","Name":"Truro","Value":58060},
{"Zip":"Tyngsborough","Name":"Tyngsborough","Value":93108},
{"Zip":"Tyringham","Name":"Tyringham","Value":77750},
{"Zip":"Upton","Name":"Upton","Value":111979},
{"Zip":"Uxbridge","Name":"Uxbridge","Value":86768},
{"Zip":"Wakefield","Name":"Wakefield","Value":85156},
{"Zip":"Wales","Name":"Wales","Value":52500},
{"Zip":"Walpole","Name":"Walpole","Value":90332},
{"Zip":"Waltham","Name":"Waltham","Value":73162},
{"Zip":"Ware","Name":"Ware","Value":49630},
{"Zip":"Wareham","Name":"Wareham","Value":62560},
{"Zip":"Warren","Name":"Warren","Value":42538},
{"Zip":"Warwick","Name":"Warwick","Value":54911},
{"Zip":"Washington","Name":"Washington","Value":69583},
{"Zip":"Watertown","Name":"Watertown","Value":86461},
{"Zip":"Wayland","Name":"Wayland","Value":142306},
{"Zip":"Webster","Name":"Webster","Value":48650},
{"Zip":"Wellesley","Name":"Wellesley","Value":159615},
{"Zip":"Wellfleet","Name":"Wellfleet","Value":45746},
{"Zip":"Wendell","Name":"Wendell","Value":38636},
{"Zip":"Wenham","Name":"Wenham","Value":116875},
{"Zip":"WestBoylston","Name":"West Boylston","Value":73365},
{"Zip":"WestBridgewater","Name":"West Bridgewater","Value":81573},
{"Zip":"WestBrookfield","Name":"West Brookfield","Value":57381},
{"Zip":"WestNewbury","Name":"West Newbury","Value":122969},
{"Zip":"WestSpringfield","Name":"West Springfield","Value":52806},
{"Zip":"WestStockbridge","Name":"West Stockbridge","Value":65455},
{"Zip":"WestTisbury","Name":"West Tisbury","Value":73843},
{"Zip":"Westborough","Name":"Westborough","Value":100552},
{"Zip":"Westfield","Name":"Westfield","Value":60845},
{"Zip":"Westford","Name":"Westford","Value":125143},
{"Zip":"Westhampton","Name":"Westhampton","Value":79583},
{"Zip":"Westminster","Name":"Westminster","Value":87273},
{"Zip":"Weston","Name":"Weston","Value":201200},
{"Zip":"Westport","Name":"Westport","Value":80840},
{"Zip":"Westwood","Name":"Westwood","Value":128813},
{"Zip":"Weymouth","Name":"Weymouth","Value":69099},
{"Zip":"Whately","Name":"Whately","Value":75982},
{"Zip":"Whitman","Name":"Whitman","Value":76494},
{"Zip":"Wilbraham","Name":"Wilbraham","Value":87303},
{"Zip":"Williamsburg","Name":"Williamsburg","Value":65147},
{"Zip":"Williamstown","Name":"Williamstown","Value":73397},
{"Zip":"Wilmington","Name":"Wilmington","Value":100536},
{"Zip":"Winchendon","Name":"Winchendon","Value":59332},
{"Zip":"Winchester","Name":"Winchester","Value":141829},
{"Zip":"Windsor","Name":"Windsor","Value":71731},
{"Zip":"Winthrop","Name":"Winthrop","Value":64169},
{"Zip":"Woburn","Name":"Woburn","Value":77883},
{"Zip":"Worcester","Name":"Worcester","Value":46105},
{"Zip":"Worthington","Name":"Worthington","Value":71300},
{"Zip":"Wrentham","Name":"Wrentham","Value":99302},
{"Zip":"Yarmouth","Name":"Yarmouth","Value":55858}]